{
  "type": "FeatureCollection",
  "name": "Dodoma_Urban",
  "features": [
    {
      "bbox": [
        35.480289,
        -6.465821,
        36.134583,
        -5.830215
      ],
      "geometry": {
        "coordinates": [
          [
            [
              [
                35.731441,
                -6.437629
              ],
              [
                35.729298,
                -6.433981
              ],
              [
                35.729137,
                -6.433624
              ],
              [
                35.727043,
                -6.426179
              ],
              [
                35.72538,
                -6.420945
              ],
              [
                35.725166,
                -6.418863
              ],
              [
                35.725052,
                -6.417768
              ],
              [
                35.724426,
                -6.411666
              ],
              [
                35.722256,
                -6.404755
              ],
              [
                35.721809,
                -6.403339
              ],
              [
                35.719498,
                -6.397047
              ],
              [
                35.715862,
                -6.38716
              ],
              [
                35.713959,
                -6.382401
              ],
              [
                35.713959,
                -6.379547
              ],
              [
                35.713707,
                -6.376908
              ],
              [
                35.713531,
                -6.376924
              ],
              [
                35.713013,
                -6.370281
              ],
              [
                35.713108,
                -6.369251
              ],
              [
                35.713448,
                -6.365613
              ],
              [
                35.713482,
                -6.365233
              ],
              [
                35.713722,
                -6.362649
              ],
              [
                35.712158,
                -6.361047
              ],
              [
                35.709904,
                -6.358739
              ],
              [
                35.709568,
                -6.358319
              ],
              [
                35.707996,
                -6.356359
              ],
              [
                35.705624,
                -6.353402
              ],
              [
                35.705521,
                -6.353274
              ],
              [
                35.704037,
                -6.351688
              ],
              [
                35.700905,
                -6.348348
              ],
              [
                35.700623,
                -6.348044
              ],
              [
                35.693272,
                -6.340365
              ],
              [
                35.690258,
                -6.337445
              ],
              [
                35.689415,
                -6.336274
              ],
              [
                35.688816,
                -6.335435
              ],
              [
                35.688702,
                -6.335278
              ],
              [
                35.684319,
                -6.33278
              ],
              [
                35.683483,
                -6.332418
              ],
              [
                35.679634,
                -6.33075
              ],
              [
                35.677254,
                -6.329719
              ],
              [
                35.675705,
                -6.329155
              ],
              [
                35.67207,
                -6.327834
              ],
              [
                35.670219,
                -6.328872
              ],
              [
                35.669067,
                -6.329522
              ],
              [
                35.667122,
                -6.330614
              ],
              [
                35.665062,
                -6.333737
              ],
              [
                35.664742,
                -6.334219
              ],
              [
                35.664013,
                -6.335325
              ],
              [
                35.661675,
                -6.338527
              ],
              [
                35.661297,
                -6.338689
              ],
              [
                35.66111,
                -6.338768
              ],
              [
                35.66053,
                -6.338838
              ],
              [
                35.653919,
                -6.338411
              ],
              [
                35.653519,
                -6.338386
              ],
              [
                35.651146,
                -6.338318
              ],
              [
                35.650406,
                -6.338297
              ],
              [
                35.650131,
                -6.338264
              ],
              [
                35.649593,
                -6.338198
              ],
              [
                35.64838,
                -6.338239
              ],
              [
                35.647591,
                -6.338216
              ],
              [
                35.645187,
                -6.338148
              ],
              [
                35.641193,
                -6.338814
              ],
              [
                35.639477,
                -6.339099
              ],
              [
                35.628891,
                -6.340728
              ],
              [
                35.624443,
                -6.341003
              ],
              [
                35.622517,
                -6.341003
              ],
              [
                35.620491,
                -6.341003
              ],
              [
                35.615528,
                -6.341003
              ],
              [
                35.613411,
                -6.341003
              ],
              [
                35.613304,
                -6.341003
              ],
              [
                35.608761,
                -6.340246
              ],
              [
                35.606167,
                -6.339813
              ],
              [
                35.604729,
                -6.339364
              ],
              [
                35.603374,
                -6.338858
              ],
              [
                35.600925,
                -6.337821
              ],
              [
                35.597511,
                -6.336728
              ],
              [
                35.593094,
                -6.33492
              ],
              [
                35.592838,
                -6.334817
              ],
              [
                35.592381,
                -6.334709
              ],
              [
                35.589027,
                -6.33392
              ],
              [
                35.586185,
                -6.332888
              ],
              [
                35.585484,
                -6.332623
              ],
              [
                35.584343,
                -6.332196
              ],
              [
                35.583084,
                -6.331724
              ],
              [
                35.579041,
                -6.330534
              ],
              [
                35.569759,
                -6.327203
              ],
              [
                35.564285,
                -6.325062
              ],
              [
                35.558811,
                -6.323159
              ],
              [
                35.557766,
                -6.322693
              ],
              [
                35.557716,
                -6.322746
              ],
              [
                35.557598,
                -6.322687
              ],
              [
                35.557629,
                -6.322633
              ],
              [
                35.557346,
                -6.322506
              ],
              [
                35.555904,
                -6.321867
              ],
              [
                35.554516,
                -6.321191
              ],
              [
                35.551441,
                -6.319774
              ],
              [
                35.549221,
                -6.318529
              ],
              [
                35.5443,
                -6.315191
              ],
              [
                35.542156,
                -6.313404
              ],
              [
                35.54121,
                -6.312736
              ],
              [
                35.539108,
                -6.311016
              ],
              [
                35.536308,
                -6.309519
              ],
              [
                35.53373,
                -6.308044
              ],
              [
                35.533115,
                -6.307693
              ],
              [
                35.532639,
                -6.306504
              ],
              [
                35.532875,
                -6.305552
              ],
              [
                35.533352,
                -6.302459
              ],
              [
                35.533115,
                -6.298653
              ],
              [
                35.533195,
                -6.297218
              ],
              [
                35.533352,
                -6.29437
              ],
              [
                35.533588,
                -6.288422
              ],
              [
                35.533829,
                -6.284139
              ],
              [
                35.534184,
                -6.284038
              ],
              [
                35.536667,
                -6.283329
              ],
              [
                35.540043,
                -6.283618
              ],
              [
                35.541023,
                -6.283187
              ],
              [
                35.54192,
                -6.283187
              ],
              [
                35.543907,
                -6.281921
              ],
              [
                35.544621,
                -6.281608
              ],
              [
                35.547081,
                -6.280268
              ],
              [
                35.547737,
                -6.279468
              ],
              [
                35.549294,
                -6.278429
              ],
              [
                35.54985,
                -6.277039
              ],
              [
                35.550247,
                -6.27605
              ],
              [
                35.550247,
                -6.272575
              ],
              [
                35.551075,
                -6.266268
              ],
              [
                35.551197,
                -6.265581
              ],
              [
                35.551739,
                -6.264165
              ],
              [
                35.553101,
                -6.260584
              ],
              [
                35.555481,
                -6.256064
              ],
              [
                35.556671,
                -6.253447
              ],
              [
                35.557861,
                -6.250592
              ],
              [
                35.559288,
                -6.247736
              ],
              [
                35.559509,
                -6.243519
              ],
              [
                35.559528,
                -6.243216
              ],
              [
                35.559528,
                -6.238963
              ],
              [
                35.559528,
                -6.237744
              ],
              [
                35.56007,
                -6.232858
              ],
              [
                35.560242,
                -6.23132
              ],
              [
                35.561192,
                -6.22323
              ],
              [
                35.562145,
                -6.215617
              ],
              [
                35.562859,
                -6.210858
              ],
              [
                35.562859,
                -6.208294
              ],
              [
                35.562859,
                -6.206545
              ],
              [
                35.562859,
                -6.205624
              ],
              [
                35.561829,
                -6.201063
              ],
              [
                35.561592,
                -6.200019
              ],
              [
                35.561192,
                -6.198248
              ],
              [
                35.55962,
                -6.193708
              ],
              [
                35.559509,
                -6.193384
              ],
              [
                35.559052,
                -6.192062
              ],
              [
                35.557697,
                -6.188966
              ],
              [
                35.557419,
                -6.188332
              ],
              [
                35.557384,
                -6.188255
              ],
              [
                35.556709,
                -6.185718
              ],
              [
                35.556435,
                -6.184687
              ],
              [
                35.556435,
                -6.183243
              ],
              [
                35.556435,
                -6.182783
              ],
              [
                35.556908,
                -6.179738
              ],
              [
                35.556671,
                -6.175447
              ],
              [
                35.556671,
                -6.170935
              ],
              [
                35.556671,
                -6.166652
              ],
              [
                35.555717,
                -6.163083
              ],
              [
                35.556908,
                -6.15999
              ],
              [
                35.556992,
                -6.159853
              ],
              [
                35.558811,
                -6.156897
              ],
              [
                35.560478,
                -6.154042
              ],
              [
                35.560726,
                -6.152189
              ],
              [
                35.560955,
                -6.150473
              ],
              [
                35.560871,
                -6.1502
              ],
              [
                35.560242,
                -6.148094
              ],
              [
                35.56023,
                -6.14799
              ],
              [
                35.560184,
                -6.14754
              ],
              [
                35.560131,
                -6.147008
              ],
              [
                35.560001,
                -6.145715
              ],
              [
                35.558609,
                -6.143329
              ],
              [
                35.558338,
                -6.142859
              ],
              [
                35.55526,
                -6.138835
              ],
              [
                35.555183,
                -6.138706
              ],
              [
                35.554157,
                -6.136798
              ],
              [
                35.553577,
                -6.135722
              ],
              [
                35.551861,
                -6.133835
              ],
              [
                35.551586,
                -6.13353
              ],
              [
                35.551197,
                -6.133105
              ],
              [
                35.550755,
                -6.132541
              ],
              [
                35.550465,
                -6.132171
              ],
              [
                35.550198,
                -6.131832
              ],
              [
                35.54858,
                -6.129774
              ],
              [
                35.547657,
                -6.129035
              ],
              [
                35.545883,
                -6.127616
              ],
              [
                35.54501,
                -6.126919
              ],
              [
                35.543507,
                -6.125214
              ],
              [
                35.54277,
                -6.124378
              ],
              [
                35.542015,
                -6.123523
              ],
              [
                35.541443,
                -6.122874
              ],
              [
                35.54063,
                -6.121793
              ],
              [
                35.538586,
                -6.119067
              ],
              [
                35.536407,
                -6.117323
              ],
              [
                35.536209,
                -6.117164
              ],
              [
                35.536156,
                -6.117064
              ],
              [
                35.535233,
                -6.115214
              ],
              [
                35.535019,
                -6.114785
              ],
              [
                35.534824,
                -6.114494
              ],
              [
                35.534065,
                -6.113357
              ],
              [
                35.533619,
                -6.112613
              ],
              [
                35.533352,
                -6.112167
              ],
              [
                35.532398,
                -6.111216
              ],
              [
                35.531448,
                -6.110264
              ],
              [
                35.531361,
                -6.110147
              ],
              [
                35.531143,
                -6.109858
              ],
              [
                35.530937,
                -6.109583
              ],
              [
                35.528591,
                -6.106457
              ],
              [
                35.526604,
                -6.10491
              ],
              [
                35.526451,
                -6.104792
              ],
              [
                35.524784,
                -6.104316
              ],
              [
                35.523357,
                -6.104316
              ],
              [
                35.521217,
                -6.10384
              ],
              [
                35.519314,
                -6.10384
              ],
              [
                35.51717,
                -6.103364
              ],
              [
                35.515587,
                -6.102889
              ],
              [
                35.514793,
                -6.102651
              ],
              [
                35.51289,
                -6.101223
              ],
              [
                35.510509,
                -6.099557
              ],
              [
                35.509201,
                -6.098248
              ],
              [
                35.509079,
                -6.09813
              ],
              [
                35.507175,
                -6.09681
              ],
              [
                35.50695,
                -6.096655
              ],
              [
                35.505989,
                -6.095989
              ],
              [
                35.505634,
                -6.095599
              ],
              [
                35.503609,
                -6.093371
              ],
              [
                35.50235,
                -6.092344
              ],
              [
                35.501846,
                -6.091931
              ],
              [
                35.501133,
                -6.091346
              ],
              [
                35.500652,
                -6.090703
              ],
              [
                35.500179,
                -6.089967
              ],
              [
                35.498848,
                -6.087899
              ],
              [
                35.497185,
                -6.084568
              ],
              [
                35.494804,
                -6.077668
              ],
              [
                35.491943,
                -6.068651
              ],
              [
                35.491711,
                -6.067914
              ],
              [
                35.490997,
                -6.062203
              ],
              [
                35.49091,
                -6.060783
              ],
              [
                35.49052,
                -6.05459
              ],
              [
                35.490425,
                -6.05405
              ],
              [
                35.490097,
                -6.052214
              ],
              [
                35.490086,
                -6.052162
              ],
              [
                35.48933,
                -6.047928
              ],
              [
                35.489189,
                -6.044935
              ],
              [
                35.48912,
                -6.043473
              ],
              [
                35.489094,
                -6.042932
              ],
              [
                35.486713,
                -6.037221
              ],
              [
                35.485226,
                -6.034244
              ],
              [
                35.484638,
                -6.033074
              ],
              [
                35.484333,
                -6.032463
              ],
              [
                35.484074,
                -6.031169
              ],
              [
                35.483383,
                -6.027704
              ],
              [
                35.483128,
                -6.027248
              ],
              [
                35.482784,
                -6.026637
              ],
              [
                35.481167,
                -6.023754
              ],
              [
                35.480999,
                -6.023454
              ],
              [
                35.480526,
                -6.022613
              ],
              [
                35.480503,
                -6.022246
              ],
              [
                35.480289,
                -6.018568
              ],
              [
                35.480766,
                -6.012858
              ],
              [
                35.481003,
                -6.009289
              ],
              [
                35.481632,
                -6.008607
              ],
              [
                35.482399,
                -6.007777
              ],
              [
                35.483856,
                -6.006196
              ],
              [
                35.485104,
                -6.004795
              ],
              [
                35.48576,
                -6.004055
              ],
              [
                35.487904,
                -6.002627
              ],
              [
                35.488606,
                -6.001458
              ],
              [
                35.488773,
                -6.000764
              ],
              [
                35.488869,
                -6.000371
              ],
              [
                35.491219,
                -5.999059
              ],
              [
                35.491619,
                -5.998834
              ],
              [
                35.497421,
                -5.995252
              ],
              [
                35.498592,
                -5.994939
              ],
              [
                35.500313,
                -5.993979
              ],
              [
                35.50124,
                -5.994254
              ],
              [
                35.505859,
                -5.993415
              ],
              [
                35.506565,
                -5.993216
              ],
              [
                35.510509,
                -5.991683
              ],
              [
                35.513126,
                -5.990493
              ],
              [
                35.521217,
                -5.989065
              ],
              [
                35.530495,
                -5.986924
              ],
              [
                35.544533,
                -5.985544
              ],
              [
                35.54501,
                -5.985497
              ],
              [
                35.546391,
                -5.985681
              ],
              [
                35.546398,
                -5.98571
              ],
              [
                35.546757,
                -5.985729
              ],
              [
                35.547585,
                -5.985773
              ],
              [
                35.548588,
                -5.985826
              ],
              [
                35.54858,
                -5.985972
              ],
              [
                35.550282,
                -5.987149
              ],
              [
                35.551674,
                -5.988113
              ],
              [
                35.554447,
                -5.989934
              ],
              [
                35.557396,
                -5.992253
              ],
              [
                35.566982,
                -5.998837
              ],
              [
                35.571392,
                -6.001841
              ],
              [
                35.573502,
                -6.00248
              ],
              [
                35.584213,
                -6.008657
              ],
              [
                35.583843,
                -6.006797
              ],
              [
                35.583797,
                -6.006434
              ],
              [
                35.58374,
                -6.005993
              ],
              [
                35.583321,
                -6.002865
              ],
              [
                35.58213,
                -5.998106
              ],
              [
                35.582119,
                -5.998025
              ],
              [
                35.581848,
                -5.996412
              ],
              [
                35.581181,
                -5.992396
              ],
              [
                35.580975,
                -5.991118
              ],
              [
                35.57999,
                -5.985021
              ],
              [
                35.580357,
                -5.984508
              ],
              [
                35.581181,
                -5.983355
              ],
              [
                35.58226,
                -5.982491
              ],
              [
                35.585938,
                -5.979548
              ],
              [
                35.587345,
                -5.978308
              ],
              [
                35.589985,
                -5.975979
              ],
              [
                35.598076,
                -5.970269
              ],
              [
                35.602119,
                -5.967176
              ],
              [
                35.60997,
                -5.967176
              ],
              [
                35.61853,
                -5.966518
              ],
              [
                35.619251,
                -5.966463
              ],
              [
                35.629482,
                -5.965273
              ],
              [
                35.629681,
                -5.965253
              ],
              [
                35.630409,
                -5.965179
              ],
              [
                35.643524,
                -5.963845
              ],
              [
                35.651615,
                -5.963131
              ],
              [
                35.651737,
                -5.963199
              ],
              [
                35.651859,
                -5.963266
              ],
              [
                35.651913,
                -5.963182
              ],
              [
                35.657158,
                -5.966196
              ],
              [
                35.660648,
                -5.968203
              ],
              [
                35.662251,
                -5.969153
              ],
              [
                35.663307,
                -5.96978
              ],
              [
                35.67065,
                -5.973838
              ],
              [
                35.672386,
                -5.974889
              ],
              [
                35.674591,
                -5.976223
              ],
              [
                35.67754,
                -5.977798
              ],
              [
                35.67984,
                -5.979026
              ],
              [
                35.684784,
                -5.981666
              ],
              [
                35.685585,
                -5.982095
              ],
              [
                35.686653,
                -5.982664
              ],
              [
                35.689045,
                -5.979922
              ],
              [
                35.690067,
                -5.978747
              ],
              [
                35.690163,
                -5.978655
              ],
              [
                35.692684,
                -5.976198
              ],
              [
                35.693985,
                -5.974931
              ],
              [
                35.702522,
                -5.965189
              ],
              [
                35.703144,
                -5.964047
              ],
              [
                35.704708,
                -5.96117
              ],
              [
                35.706238,
                -5.95836
              ],
              [
                35.70647,
                -5.957897
              ],
              [
                35.706749,
                -5.957339
              ],
              [
                35.709454,
                -5.951932
              ],
              [
                35.709858,
                -5.95106
              ],
              [
                35.711723,
                -5.947051
              ],
              [
                35.713493,
                -5.94325
              ],
              [
                35.713955,
                -5.942261
              ],
              [
                35.714039,
                -5.942081
              ],
              [
                35.714172,
                -5.941789
              ],
              [
                35.714211,
                -5.941774
              ],
              [
                35.714275,
                -5.941749
              ],
              [
                35.714367,
                -5.941711
              ],
              [
                35.718391,
                -5.940082
              ],
              [
                35.720703,
                -5.937069
              ],
              [
                35.721531,
                -5.932923
              ],
              [
                35.721706,
                -5.932048
              ],
              [
                35.721901,
                -5.931274
              ],
              [
                35.723541,
                -5.924802
              ],
              [
                35.723717,
                -5.924114
              ],
              [
                35.723846,
                -5.923859
              ],
              [
                35.72477,
                -5.92206
              ],
              [
                35.725056,
                -5.921505
              ],
              [
                35.725399,
                -5.92084
              ],
              [
                35.727329,
                -5.917084
              ],
              [
                35.728806,
                -5.91479
              ],
              [
                35.729221,
                -5.914146
              ],
              [
                35.729389,
                -5.913881
              ],
              [
                35.729702,
                -5.913394
              ],
              [
                35.732754,
                -5.908648
              ],
              [
                35.734463,
                -5.905032
              ],
              [
                35.734657,
                -5.904498
              ],
              [
                35.735432,
                -5.90239
              ],
              [
                35.735565,
                -5.90202
              ],
              [
                35.737476,
                -5.898102
              ],
              [
                35.73777,
                -5.897808
              ],
              [
                35.739162,
                -5.896417
              ],
              [
                35.739746,
                -5.895832
              ],
              [
                35.739986,
                -5.895592
              ],
              [
                35.740467,
                -5.894209
              ],
              [
                35.741695,
                -5.890671
              ],
              [
                35.74218,
                -5.890388
              ],
              [
                35.743496,
                -5.88962
              ],
              [
                35.743832,
                -5.889424
              ],
              [
                35.745308,
                -5.888562
              ],
              [
                35.745613,
                -5.888484
              ],
              [
                35.74963,
                -5.887457
              ],
              [
                35.751938,
                -5.888361
              ],
              [
                35.758469,
                -5.886754
              ],
              [
                35.766201,
                -5.885549
              ],
              [
                35.773735,
                -5.885147
              ],
              [
                35.788902,
                -5.884946
              ],
              [
                35.792717,
                -5.884645
              ],
              [
                35.798946,
                -5.883741
              ],
              [
                35.808887,
                -5.88103
              ],
              [
                35.817326,
                -5.878619
              ],
              [
                35.826511,
                -5.876235
              ],
              [
                35.826614,
                -5.874524
              ],
              [
                35.826645,
                -5.874053
              ],
              [
                35.826698,
                -5.872973
              ],
              [
                35.826763,
                -5.871755
              ],
              [
                35.82679,
                -5.871207
              ],
              [
                35.826824,
                -5.870532
              ],
              [
                35.827065,
                -5.865746
              ],
              [
                35.827194,
                -5.863203
              ],
              [
                35.827343,
                -5.860273
              ],
              [
                35.827625,
                -5.854695
              ],
              [
                35.828377,
                -5.846861
              ],
              [
                35.82917,
                -5.845154
              ],
              [
                35.830284,
                -5.842746
              ],
              [
                35.830357,
                -5.842594
              ],
              [
                35.830868,
                -5.841488
              ],
              [
                35.831215,
                -5.840737
              ],
              [
                35.831875,
                -5.840638
              ],
              [
                35.837418,
                -5.840233
              ],
              [
                35.841583,
                -5.839299
              ],
              [
                35.841785,
                -5.839253
              ],
              [
                35.851128,
                -5.837973
              ],
              [
                35.85157,
                -5.837348
              ],
              [
                35.85355,
                -5.834541
              ],
              [
                35.85384,
                -5.834132
              ],
              [
                35.85384,
                -5.833771
              ],
              [
                35.85384,
                -5.832679
              ],
              [
                35.85384,
                -5.830248
              ],
              [
                35.85384,
                -5.830215
              ],
              [
                35.862049,
                -5.830441
              ],
              [
                35.862644,
                -5.830504
              ],
              [
                35.863369,
                -5.830581
              ],
              [
                35.865589,
                -5.830818
              ],
              [
                35.866112,
                -5.830997
              ],
              [
                35.869823,
                -5.83227
              ],
              [
                35.87064,
                -5.83255
              ],
              [
                35.87674,
                -5.834659
              ],
              [
                35.878624,
                -5.835412
              ],
              [
                35.883144,
                -5.837521
              ],
              [
                35.886833,
                -5.840007
              ],
              [
                35.890221,
                -5.840837
              ],
              [
                35.890827,
                -5.840986
              ],
              [
                35.890984,
                -5.841043
              ],
              [
                35.891552,
                -5.841254
              ],
              [
                35.891609,
                -5.841287
              ],
              [
                35.891731,
                -5.841321
              ],
              [
                35.89286,
                -5.841739
              ],
              [
                35.8941,
                -5.841985
              ],
              [
                35.896465,
                -5.842646
              ],
              [
                35.897247,
                -5.842607
              ],
              [
                35.899715,
                -5.843095
              ],
              [
                35.902431,
                -5.842118
              ],
              [
                35.903793,
                -5.841792
              ],
              [
                35.907173,
                -5.840981
              ],
              [
                35.907619,
                -5.840747
              ],
              [
                35.910664,
                -5.839159
              ],
              [
                35.912647,
                -5.838126
              ],
              [
                35.923355,
                -5.835508
              ],
              [
                35.926826,
                -5.83496
              ],
              [
                35.927876,
                -5.834795
              ],
              [
                35.927895,
                -5.834744
              ],
              [
                35.936829,
                -5.835194
              ],
              [
                35.94944,
                -5.834718
              ],
              [
                35.959431,
                -5.834956
              ],
              [
                35.962917,
                -5.835472
              ],
              [
                35.965378,
                -5.835541
              ],
              [
                35.973785,
                -5.835778
              ],
              [
                35.976135,
                -5.835844
              ],
              [
                35.980846,
                -5.83567
              ],
              [
                35.981247,
                -5.835988
              ],
              [
                35.981766,
                -5.836404
              ],
              [
                35.98222,
                -5.836766
              ],
              [
                35.982796,
                -5.837229
              ],
              [
                35.983227,
                -5.837573
              ],
              [
                35.983356,
                -5.838296
              ],
              [
                35.983452,
                -5.838838
              ],
              [
                35.983902,
                -5.841386
              ],
              [
                35.98394,
                -5.841618
              ],
              [
                35.985497,
                -5.845327
              ],
              [
                35.987133,
                -5.851455
              ],
              [
                35.987057,
                -5.853112
              ],
              [
                35.988438,
                -5.858119
              ],
              [
                35.988461,
                -5.858273
              ],
              [
                35.98851,
                -5.858381
              ],
              [
                35.989319,
                -5.861322
              ],
              [
                35.9898,
                -5.861393
              ],
              [
                35.989891,
                -5.861603
              ],
              [
                35.994041,
                -5.862019
              ],
              [
                35.998642,
                -5.862696
              ],
              [
                36.001072,
                -5.863269
              ],
              [
                36.004093,
                -5.863148
              ],
              [
                36.008377,
                -5.86328
              ],
              [
                36.011467,
                -5.863205
              ],
              [
                36.020329,
                -5.859601
              ],
              [
                36.024632,
                -5.858986
              ],
              [
                36.028446,
                -5.857714
              ],
              [
                36.031055,
                -5.856845
              ],
              [
                36.031872,
                -5.856251
              ],
              [
                36.033489,
                -5.855791
              ],
              [
                36.035034,
                -5.855353
              ],
              [
                36.040886,
                -5.85604
              ],
              [
                36.041763,
                -5.856369
              ],
              [
                36.042725,
                -5.856433
              ],
              [
                36.043175,
                -5.856463
              ],
              [
                36.045334,
                -5.856607
              ],
              [
                36.045715,
                -5.856607
              ],
              [
                36.048664,
                -5.856607
              ],
              [
                36.049644,
                -5.857
              ],
              [
                36.049889,
                -5.857097
              ],
              [
                36.050018,
                -5.857149
              ],
              [
                36.051044,
                -5.857559
              ],
              [
                36.054852,
                -5.859224
              ],
              [
                36.057232,
                -5.861603
              ],
              [
                36.061039,
                -5.86422
              ],
              [
                36.065559,
                -5.868265
              ],
              [
                36.070316,
                -5.871358
              ],
              [
                36.071983,
                -5.873737
              ],
              [
                36.072361,
                -5.874396
              ],
              [
                36.072933,
                -5.875403
              ],
              [
                36.074463,
                -5.876235
              ],
              [
                36.075554,
                -5.87683
              ],
              [
                36.075768,
                -5.876916
              ],
              [
                36.07605,
                -5.877029
              ],
              [
                36.081501,
                -5.87921
              ],
              [
                36.083164,
                -5.879949
              ],
              [
                36.084656,
                -5.880611
              ],
              [
                36.085785,
                -5.881113
              ],
              [
                36.089828,
                -5.883016
              ],
              [
                36.093327,
                -5.884868
              ],
              [
                36.094341,
                -5.885303
              ],
              [
                36.094471,
                -5.885359
              ],
              [
                36.094582,
                -5.885406
              ],
              [
                36.096008,
                -5.88689
              ],
              [
                36.097683,
                -5.888251
              ],
              [
                36.097736,
                -5.888316
              ],
              [
                36.098682,
                -5.88945
              ],
              [
                36.099472,
                -5.890401
              ],
              [
                36.100212,
                -5.891087
              ],
              [
                36.100681,
                -5.891519
              ],
              [
                36.100723,
                -5.891548
              ],
              [
                36.102203,
                -5.892533
              ],
              [
                36.105297,
                -5.895389
              ],
              [
                36.107037,
                -5.898236
              ],
              [
                36.107529,
                -5.898825
              ],
              [
                36.10799,
                -5.899377
              ],
              [
                36.109879,
                -5.901635
              ],
              [
                36.110054,
                -5.901813
              ],
              [
                36.114101,
                -5.902526
              ],
              [
                36.115528,
                -5.904667
              ],
              [
                36.116169,
                -5.906584
              ],
              [
                36.117363,
                -5.907701
              ],
              [
                36.117558,
                -5.90788
              ],
              [
                36.118916,
                -5.909146
              ],
              [
                36.119469,
                -5.909514
              ],
              [
                36.120762,
                -5.910378
              ],
              [
                36.123142,
                -5.912995
              ],
              [
                36.125999,
                -5.916088
              ],
              [
                36.126472,
                -5.919181
              ],
              [
                36.12746,
                -5.921315
              ],
              [
                36.12809,
                -5.921993
              ],
              [
                36.129837,
                -5.923877
              ],
              [
                36.130466,
                -5.924459
              ],
              [
                36.13271,
                -5.926533
              ],
              [
                36.134327,
                -5.927746
              ],
              [
                36.134583,
                -5.929092
              ],
              [
                36.134132,
                -5.929357
              ],
              [
                36.133324,
                -5.929621
              ],
              [
                36.123455,
                -5.932859
              ],
              [
                36.114189,
                -5.935684
              ],
              [
                36.107464,
                -5.93783
              ],
              [
                36.095375,
                -5.942575
              ],
              [
                36.086727,
                -5.943405
              ],
              [
                36.083786,
                -5.943687
              ],
              [
                36.082554,
                -5.943687
              ],
              [
                36.076981,
                -5.943687
              ],
              [
                36.066273,
                -5.945115
              ],
              [
                36.064945,
                -5.945355
              ],
              [
                36.058418,
                -5.946542
              ],
              [
                36.051517,
                -5.94797
              ],
              [
                36.051487,
                -5.947978
              ],
              [
                36.051136,
                -5.948077
              ],
              [
                36.05051,
                -5.948252
              ],
              [
                36.049892,
                -5.948338
              ],
              [
                36.049267,
                -5.9486
              ],
              [
                36.047794,
                -5.949013
              ],
              [
                36.047245,
                -5.949166
              ],
              [
                36.04557,
                -5.949635
              ],
              [
                36.041069,
                -5.950074
              ],
              [
                36.039185,
                -5.950258
              ],
              [
                36.037804,
                -5.950371
              ],
              [
                36.037628,
                -5.95041
              ],
              [
                36.036121,
                -5.950557
              ],
              [
                36.035816,
                -5.950587
              ],
              [
                36.034992,
                -5.950766
              ],
              [
                36.032097,
                -5.951501
              ],
              [
                36.028545,
                -5.952629
              ],
              [
                36.027935,
                -5.952824
              ],
              [
                36.026836,
                -5.953301
              ],
              [
                36.026291,
                -5.953627
              ],
              [
                36.023094,
                -5.955536
              ],
              [
                36.022503,
                -5.955891
              ],
              [
                36.022011,
                -5.956253
              ],
              [
                36.021164,
                -5.957404
              ],
              [
                36.01968,
                -5.959431
              ],
              [
                36.018921,
                -5.960469
              ],
              [
                36.018921,
                -5.96177
              ],
              [
                36.018681,
                -5.963911
              ],
              [
                36.017967,
                -5.965814
              ],
              [
                36.017967,
                -5.968194
              ],
              [
                36.017956,
                -5.968304
              ],
              [
                36.017902,
                -5.968733
              ],
              [
                36.017883,
                -5.968872
              ],
              [
                36.017841,
                -5.969223
              ],
              [
                36.017811,
                -5.969464
              ],
              [
                36.014355,
                -5.971838
              ],
              [
                36.014301,
                -5.971901
              ],
              [
                36.013954,
                -5.972084
              ],
              [
                36.01321,
                -5.972476
              ],
              [
                36.012924,
                -5.972793
              ],
              [
                36.012131,
                -5.973668
              ],
              [
                36.010662,
                -5.975292
              ],
              [
                36.010632,
                -5.975418
              ],
              [
                36.01062,
                -5.975446
              ],
              [
                36.010612,
                -5.975474
              ],
              [
                36.00869,
                -5.977601
              ],
              [
                36.007011,
                -5.979885
              ],
              [
                36.006069,
                -5.981169
              ],
              [
                36.00568,
                -5.981841
              ],
              [
                36.003452,
                -5.98569
              ],
              [
                36.002598,
                -5.986375
              ],
              [
                35.999886,
                -5.988545
              ],
              [
                35.998077,
                -5.989656
              ],
              [
                35.996792,
                -5.990448
              ],
              [
                35.995602,
                -5.991712
              ],
              [
                35.989414,
                -5.9983
              ],
              [
                35.989128,
                -5.998747
              ],
              [
                35.987747,
                -6.000917
              ],
              [
                35.988224,
                -6.002583
              ],
              [
                35.988281,
                -6.002748
              ],
              [
                35.988647,
                -6.003857
              ],
              [
                35.988701,
                -6.00401
              ],
              [
                35.986645,
                -6.006065
              ],
              [
                35.985813,
                -6.006898
              ],
              [
                35.984653,
                -6.008055
              ],
              [
                35.984077,
                -6.009207
              ],
              [
                35.983738,
                -6.009889
              ],
              [
                35.982777,
                -6.011808
              ],
              [
                35.982277,
                -6.012814
              ],
              [
                35.97963,
                -6.016634
              ],
              [
                35.97953,
                -6.016797
              ],
              [
                35.97818,
                -6.019
              ],
              [
                35.980133,
                -6.019
              ],
              [
                35.983704,
                -6.020427
              ],
              [
                35.986797,
                -6.020903
              ],
              [
                35.99099,
                -6.021814
              ],
              [
                35.99107,
                -6.021832
              ],
              [
                35.991516,
                -6.021886
              ],
              [
                35.991867,
                -6.021929
              ],
              [
                35.995033,
                -6.023538
              ],
              [
                35.997517,
                -6.025176
              ],
              [
                35.998985,
                -6.02721
              ],
              [
                36.00069,
                -6.029568
              ],
              [
                36.000908,
                -6.029865
              ],
              [
                36.000172,
                -6.036362
              ],
              [
                36.000286,
                -6.047716
              ],
              [
                36.000286,
                -6.049863
              ],
              [
                36.000172,
                -6.058902
              ],
              [
                36.000401,
                -6.065737
              ],
              [
                36.00024,
                -6.066258
              ],
              [
                36.000401,
                -6.067036
              ],
              [
                36.000771,
                -6.076895
              ],
              [
                36.000702,
                -6.07849
              ],
              [
                36.000576,
                -6.081357
              ],
              [
                36.000439,
                -6.084385
              ],
              [
                36.000359,
                -6.084428
              ],
              [
                35.996315,
                -6.097038
              ],
              [
                35.995602,
                -6.101797
              ],
              [
                35.996548,
                -6.109923
              ],
              [
                35.9967,
                -6.110999
              ],
              [
                35.99704,
                -6.113457
              ],
              [
                35.997177,
                -6.114448
              ],
              [
                35.99736,
                -6.115761
              ],
              [
                35.997463,
                -6.116484
              ],
              [
                35.997833,
                -6.119146
              ],
              [
                35.997963,
                -6.122278
              ],
              [
                35.997982,
                -6.125734
              ],
              [
                35.997986,
                -6.126498
              ],
              [
                35.998047,
                -6.12836
              ],
              [
                35.998695,
                -6.13394
              ],
              [
                35.998699,
                -6.134414
              ],
              [
                35.998745,
                -6.142232
              ],
              [
                35.998814,
                -6.143276
              ],
              [
                35.999016,
                -6.146298
              ],
              [
                35.999256,
                -6.149872
              ],
              [
                36.000122,
                -6.152475
              ],
              [
                36.000072,
                -6.152975
              ],
              [
                36.000088,
                -6.153018
              ],
              [
                35.999981,
                -6.153897
              ],
              [
                35.999569,
                -6.158025
              ],
              [
                36.000355,
                -6.162454
              ],
              [
                36.000835,
                -6.163895
              ],
              [
                36.000835,
                -6.164048
              ],
              [
                36.001686,
                -6.165864
              ],
              [
                36.002151,
                -6.167208
              ],
              [
                36.005272,
                -6.168217
              ],
              [
                36.008797,
                -6.169392
              ],
              [
                36.013626,
                -6.170958
              ],
              [
                36.017281,
                -6.171872
              ],
              [
                36.021488,
                -6.173448
              ],
              [
                36.027786,
                -6.175897
              ],
              [
                36.031288,
                -6.179629
              ],
              [
                36.035835,
                -6.183245
              ],
              [
                36.040852,
                -6.186045
              ],
              [
                36.041321,
                -6.189777
              ],
              [
                36.042721,
                -6.199225
              ],
              [
                36.045753,
                -6.211122
              ],
              [
                36.049137,
                -6.221736
              ],
              [
                36.053101,
                -6.231184
              ],
              [
                36.055302,
                -6.238757
              ],
              [
                36.056019,
                -6.241215
              ],
              [
                36.052361,
                -6.244414
              ],
              [
                36.049664,
                -6.24868
              ],
              [
                36.045174,
                -6.252496
              ],
              [
                36.040684,
                -6.256313
              ],
              [
                36.031254,
                -6.264171
              ],
              [
                36.025639,
                -6.268661
              ],
              [
                36.02182,
                -6.272254
              ],
              [
                36.019577,
                -6.272702
              ],
              [
                36.013737,
                -6.271355
              ],
              [
                36.009022,
                -6.268886
              ],
              [
                36.006104,
                -6.269559
              ],
              [
                36.003735,
                -6.270603
              ],
              [
                36.002499,
                -6.271146
              ],
              [
                35.99651,
                -6.275597
              ],
              [
                35.993099,
                -6.278627
              ],
              [
                35.987289,
                -6.283789
              ],
              [
                35.986103,
                -6.284593
              ],
              [
                35.979916,
                -6.288795
              ],
              [
                35.974186,
                -6.28714
              ],
              [
                35.973583,
                -6.286957
              ],
              [
                35.973412,
                -6.286906
              ],
              [
                35.97126,
                -6.285699
              ],
              [
                35.967819,
                -6.283774
              ],
              [
                35.96489,
                -6.282133
              ],
              [
                35.95834,
                -6.278858
              ],
              [
                35.957844,
                -6.278611
              ],
              [
                35.95771,
                -6.278544
              ],
              [
                35.956657,
                -6.278018
              ],
              [
                35.955685,
                -6.277531
              ],
              [
                35.955204,
                -6.27735
              ],
              [
                35.949005,
                -6.275022
              ],
              [
                35.947895,
                -6.274602
              ],
              [
                35.947578,
                -6.274484
              ],
              [
                35.946506,
                -6.27408
              ],
              [
                35.945782,
                -6.274056
              ],
              [
                35.943634,
                -6.273985
              ],
              [
                35.942299,
                -6.273985
              ],
              [
                35.940723,
                -6.273985
              ],
              [
                35.939713,
                -6.273985
              ],
              [
                35.939301,
                -6.273985
              ],
              [
                35.937649,
                -6.274174
              ],
              [
                35.934971,
                -6.274284
              ],
              [
                35.934772,
                -6.274292
              ],
              [
                35.934212,
                -6.274315
              ],
              [
                35.933357,
                -6.274302
              ],
              [
                35.932705,
                -6.274292
              ],
              [
                35.931496,
                -6.274273
              ],
              [
                35.931149,
                -6.274268
              ],
              [
                35.930477,
                -6.274217
              ],
              [
                35.927547,
                -6.273993
              ],
              [
                35.925797,
                -6.273859
              ],
              [
                35.924976,
                -6.273797
              ],
              [
                35.920876,
                -6.273465
              ],
              [
                35.919746,
                -6.273373
              ],
              [
                35.916588,
                -6.27281
              ],
              [
                35.914841,
                -6.272498
              ],
              [
                35.91367,
                -6.27229
              ],
              [
                35.911072,
                -6.271839
              ],
              [
                35.909225,
                -6.271437
              ],
              [
                35.908966,
                -6.271422
              ],
              [
                35.908516,
                -6.271395
              ],
              [
                35.907967,
                -6.2713
              ],
              [
                35.907303,
                -6.271324
              ],
              [
                35.90704,
                -6.271308
              ],
              [
                35.905178,
                -6.271199
              ],
              [
                35.902996,
                -6.271277
              ],
              [
                35.90136,
                -6.271336
              ],
              [
                35.898918,
                -6.271423
              ],
              [
                35.898518,
                -6.271437
              ],
              [
                35.893559,
                -6.271558
              ],
              [
                35.88884,
                -6.271673
              ],
              [
                35.88876,
                -6.271675
              ],
              [
                35.887489,
                -6.271569
              ],
              [
                35.885529,
                -6.271515
              ],
              [
                35.885475,
                -6.271511
              ],
              [
                35.884762,
                -6.271451
              ],
              [
                35.883049,
                -6.271309
              ],
              [
                35.882839,
                -6.27126
              ],
              [
                35.881977,
                -6.271062
              ],
              [
                35.881084,
                -6.270855
              ],
              [
                35.880898,
                -6.270812
              ],
              [
                35.879955,
                -6.270595
              ],
              [
                35.877483,
                -6.26995
              ],
              [
                35.875473,
                -6.269426
              ],
              [
                35.874485,
                -6.269168
              ],
              [
                35.871292,
                -6.268569
              ],
              [
                35.870678,
                -6.268454
              ],
              [
                35.869415,
                -6.268454
              ],
              [
                35.869297,
                -6.268454
              ],
              [
                35.868774,
                -6.268454
              ],
              [
                35.868176,
                -6.268514
              ],
              [
                35.864014,
                -6.26893
              ],
              [
                35.86277,
                -6.268826
              ],
              [
                35.86116,
                -6.268692
              ],
              [
                35.857243,
                -6.268692
              ],
              [
                35.857113,
                -6.268692
              ],
              [
                35.855984,
                -6.268692
              ],
              [
                35.85445,
                -6.268692
              ],
              [
                35.853546,
                -6.268692
              ],
              [
                35.852936,
                -6.268527
              ],
              [
                35.851608,
                -6.268164
              ],
              [
                35.850925,
                -6.267978
              ],
              [
                35.846645,
                -6.26774
              ],
              [
                35.845966,
                -6.26774
              ],
              [
                35.843552,
                -6.26774
              ],
              [
                35.839455,
                -6.268878
              ],
              [
                35.839268,
                -6.26893
              ],
              [
                35.837524,
                -6.269395
              ],
              [
                35.835697,
                -6.269882
              ],
              [
                35.833584,
                -6.270217
              ],
              [
                35.833439,
                -6.270276
              ],
              [
                35.831371,
                -6.271112
              ],
              [
                35.830048,
                -6.272202
              ],
              [
                35.828323,
                -6.273926
              ],
              [
                35.824039,
                -6.276544
              ],
              [
                35.821728,
                -6.277814
              ],
              [
                35.819279,
                -6.27916
              ],
              [
                35.816914,
                -6.280107
              ],
              [
                35.813889,
                -6.281524
              ],
              [
                35.810043,
                -6.282411
              ],
              [
                35.808094,
                -6.282968
              ],
              [
                35.807533,
                -6.28299
              ],
              [
                35.806053,
                -6.283331
              ],
              [
                35.805313,
                -6.283502
              ],
              [
                35.802795,
                -6.283975
              ],
              [
                35.802299,
                -6.284068
              ],
              [
                35.802303,
                -6.284854
              ],
              [
                35.802345,
                -6.291652
              ],
              [
                35.802353,
                -6.29226
              ],
              [
                35.802368,
                -6.293686
              ],
              [
                35.802441,
                -6.301216
              ],
              [
                35.802437,
                -6.301265
              ],
              [
                35.802181,
                -6.303588
              ],
              [
                35.802109,
                -6.30424
              ],
              [
                35.801994,
                -6.306796
              ],
              [
                35.80191,
                -6.308663
              ],
              [
                35.801414,
                -6.310449
              ],
              [
                35.801384,
                -6.31044
              ],
              [
                35.801224,
                -6.311027
              ],
              [
                35.801197,
                -6.311183
              ],
              [
                35.800777,
                -6.313733
              ],
              [
                35.800697,
                -6.314219
              ],
              [
                35.800594,
                -6.314916
              ],
              [
                35.80048,
                -6.315718
              ],
              [
                35.799778,
                -6.320546
              ],
              [
                35.799641,
                -6.321494
              ],
              [
                35.799568,
                -6.321992
              ],
              [
                35.798782,
                -6.325033
              ],
              [
                35.797539,
                -6.32986
              ],
              [
                35.796688,
                -6.331634
              ],
              [
                35.794666,
                -6.335843
              ],
              [
                35.791039,
                -6.343145
              ],
              [
                35.789551,
                -6.345946
              ],
              [
                35.788872,
                -6.347223
              ],
              [
                35.788635,
                -6.347668
              ],
              [
                35.787266,
                -6.350549
              ],
              [
                35.786846,
                -6.351437
              ],
              [
                35.786816,
                -6.3518
              ],
              [
                35.78672,
                -6.35288
              ],
              [
                35.786789,
                -6.353095
              ],
              [
                35.787254,
                -6.354589
              ],
              [
                35.787296,
                -6.354735
              ],
              [
                35.789059,
                -6.359707
              ],
              [
                35.789238,
                -6.360293
              ],
              [
                35.78994,
                -6.362605
              ],
              [
                35.790726,
                -6.36518
              ],
              [
                35.793694,
                -6.371112
              ],
              [
                35.79377,
                -6.371317
              ],
              [
                35.793858,
                -6.371444
              ],
              [
                35.794056,
                -6.371841
              ],
              [
                35.795841,
                -6.374338
              ],
              [
                35.801453,
                -6.38253
              ],
              [
                35.804668,
                -6.386155
              ],
              [
                35.805004,
                -6.386593
              ],
              [
                35.805389,
                -6.386968
              ],
              [
                35.809601,
                -6.391716
              ],
              [
                35.813641,
                -6.395219
              ],
              [
                35.814281,
                -6.39611
              ],
              [
                35.814362,
                -6.396826
              ],
              [
                35.814465,
                -6.397739
              ],
              [
                35.814068,
                -6.399477
              ],
              [
                35.813541,
                -6.400895
              ],
              [
                35.812141,
                -6.404675
              ],
              [
                35.812073,
                -6.40536
              ],
              [
                35.811665,
                -6.409433
              ],
              [
                35.811165,
                -6.411587
              ],
              [
                35.810688,
                -6.41334
              ],
              [
                35.810383,
                -6.414945
              ],
              [
                35.810081,
                -6.416249
              ],
              [
                35.809319,
                -6.41857
              ],
              [
                35.808567,
                -6.421915
              ],
              [
                35.808144,
                -6.423846
              ],
              [
                35.807304,
                -6.426591
              ],
              [
                35.806164,
                -6.429098
              ],
              [
                35.804802,
                -6.431472
              ],
              [
                35.804684,
                -6.431619
              ],
              [
                35.803337,
                -6.433315
              ],
              [
                35.803318,
                -6.433359
              ],
              [
                35.80286,
                -6.433939
              ],
              [
                35.80286,
                -6.434425
              ],
              [
                35.80225,
                -6.435858
              ],
              [
                35.803059,
                -6.438122
              ],
              [
                35.803364,
                -6.438984
              ],
              [
                35.803925,
                -6.441999
              ],
              [
                35.804123,
                -6.443207
              ],
              [
                35.804817,
                -6.44736
              ],
              [
                35.804482,
                -6.451827
              ],
              [
                35.804482,
                -6.455297
              ],
              [
                35.804482,
                -6.455624
              ],
              [
                35.80381,
                -6.46143
              ],
              [
                35.803711,
                -6.465623
              ],
              [
                35.803707,
                -6.465765
              ],
              [
                35.803101,
                -6.465821
              ],
              [
                35.797153,
                -6.465821
              ],
              [
                35.794819,
                -6.465821
              ],
              [
                35.794193,
                -6.465785
              ],
              [
                35.78577,
                -6.464874
              ],
              [
                35.785728,
                -6.46487
              ],
              [
                35.780277,
                -6.464652
              ],
              [
                35.779781,
                -6.464632
              ],
              [
                35.773117,
                -6.463918
              ],
              [
                35.762886,
                -6.462966
              ],
              [
                35.758755,
                -6.461901
              ],
              [
                35.75803,
                -6.461713
              ],
              [
                35.754337,
                -6.459867
              ],
              [
                35.75338,
                -6.458868
              ],
              [
                35.752373,
                -6.457818
              ],
              [
                35.750694,
                -6.455953
              ],
              [
                35.749039,
                -6.454111
              ],
              [
                35.74823,
                -6.453213
              ],
              [
                35.74596,
                -6.450263
              ],
              [
                35.742832,
                -6.444903
              ],
              [
                35.742237,
                -6.444838
              ],
              [
                35.742126,
                -6.444826
              ],
              [
                35.741989,
                -6.444811
              ],
              [
                35.739513,
                -6.444121
              ],
              [
                35.739471,
                -6.444109
              ],
              [
                35.739025,
                -6.443946
              ],
              [
                35.738407,
                -6.443638
              ],
              [
                35.737549,
                -6.443209
              ],
              [
                35.736908,
                -6.442702
              ],
              [
                35.735134,
                -6.440931
              ],
              [
                35.731865,
                -6.438097
              ],
              [
                35.731441,
                -6.437629
              ]
            ]
          ]
        ],
        "type": "MultiPolygon"
      },
      "id": 0,
      "properties": {
        "CC_2": "05",
        "COUNTRY": "Tanzania",
        "ENGTYPE_2": "District",
        "GID_0": "TZA",
        "GID_1": "TZA.3_1",
        "GID_2": "TZA.3.4_1",
        "HASC_2": "TZ.DO.DU",
        "NAME_1": "Dodoma",
        "NAME_2": "Dodoma Urban",
        "NL_NAME_1": "NA",
        "NL_NAME_2": "NA",
        "TYPE_2": "Wilaya",
        "VARNAME_2": "Dodoma Mjini"
      },
      "type": "Feature"
    }
  ]
}
